LEMUR-2-GREENBERG       
1 42837U 17042N   26068.46200528  .00019778  00000+0  72539-3 0  9997
2 42837  97.3781 249.8007 0009157   4.0119 356.1192 15.27971352473146
STARLINK-34221          
1 64453U 25130R   26068.43847046  .00028760  00000+0  97956-3 0  9992
2 64453  53.1602  89.7733 0001396  76.5586 283.5571 15.30194722 40665
